#dP2024 10 19 18  0  0.00000000      96 __u+U IGS20 EXT  IAC
## 2336 583200.00000000   900.00000000 60602 0.7500000000000
+   53   G02G03G04G05G06G07G08G09G10G11G12G13G14G15G16G17G18
+        G19G20G21G22G23G24G25G26G27G28G29G30G31G32R01R02R03
+        R04R05R07R08R09R11R12R14R15R16R17R18R19R20R21R22R24
+        R25R26  0  0  0  0  0  0  0  0  0  0  0  0  0  0  0
+          0  0  0  0  0  0  0  0  0  0  0  0  0  0  0  0  0
++         7  7  6  6  8  6  6  7  7  8  8  7  8  6  8  7  7
++         8  7  8  9  7  7  8  7  7  7  7  7  8  7  7  9  8
++         8  8  8  8  7  8  8  8 10  8  7  8  7  9  8  8  9
++         9  9  0  0  0  0  0  0  0  0  0  0  0  0  0  0  0
++         0  0  0  0  0  0  0  0  0  0  0  0  0  0  0  0  0
%c M  cc GPS ccc cccc cccc cccc cccc ccccc ccccc ccccc ccccc
%c cc cc ccc ccc cccc cccc cccc cccc ccccc ccccc ccccc ccccc
%f  0.0000000  0.000000000  0.00000000000  0.000000000000000
%f  0.0000000  0.000000000  0.00000000000  0.000000000000000
%i    0    0    0    0      0      0      0      0         0
%i    0    0    0    0      0      0      0      0         0
/* IAC                                ULTRA-RAPID PREDICTION
/* S/V CLOCKS ARE ALIGNED TO GNSS TIME                      
/* G:C1WC2W R:C1PC2P E:C1XC5X C:C2IC6I J:C1CC2S             
/* PCV:IGS20_2317 OL/AL:FES2004  NONE     YN ORB:CoN CLK:CoN
*  2024 10 19 19  0  0.00000000
PG02 -22915.742405 -13470.957315   3441.210595   -333.512878
PG03 -13092.854788  -7712.831723  21631.090892    575.262843
PG04 -22882.681872  -2475.719031  13397.218175    464.605447
PG05   6366.218722  21992.443167 -13588.368513   -190.310603
PG06  -4303.841857  15042.785929  21513.859732    -50.512532
PG07 -20396.920135  -1770.346703 -16628.367362    -26.291000
PG08 -14295.906564  -9912.294631 -20300.369105    389.234411
PG09 -25400.756184   6414.913187   4474.031405    405.863075
PG10  10311.462849 -22430.356981  -9110.999350   -164.362825
PG11   9255.593921  21157.907116  13209.688494   -745.123377
PG12  11378.930714  12464.918470  20236.054650   -546.266788
PG13   5172.851950  14292.913781 -22025.149103    682.220578
PG14 -13024.552685  19503.183376 -12200.481242    521.168247
PG15  15576.733038   8535.036501 -20314.430487    217.668082
PG16   -916.610986 -24295.130687 -10477.889409   -150.600893
PG17 -19893.564824  13937.281133  11374.654152    589.814276
PG18  19248.564057    383.185492 -18370.985847   -658.489819
PG19 -11759.068097  15481.471413  17751.090540    552.508218
PG20   1389.203400  26519.716563  -2055.177569    369.520231
PG21 -21053.384174 -16896.512813  -2452.395037     99.412185
PG22  -9778.778720  24458.729180  -4101.770274    -72.449252
PG23  14643.153373 -11021.116436 -19104.680302    345.158229
PG24  22057.689821  15182.233610    114.109676   -484.201813
PG25  15579.714212  -2039.769903  21038.339882    499.466076
PG26   4190.544817 -25905.286841   2235.299606     51.659125
PG27  -2575.822753 -15323.418300 -21802.648675    -34.628175
PG28   6204.104567 -14261.520357  21516.750127   -451.353517
PG29  25794.673145  -2808.718701   5941.727982   -570.098164
PG30 -13628.654250   8693.007402 -20959.848483   -299.157629
PG31  -4759.339456 -19891.270572  16499.051052   -223.137921
PG32  17361.849397 -15703.654637  12566.966634   -584.776267
PR01  19763.633466  -9469.640255 -13063.777401    101.588098
PR02  18211.554459 -17407.798794   3779.844520    -25.264947
PR03   5809.318040 -16390.447038  18673.130609    109.732383
PR04  -9010.464723  -6334.292547  23031.344850    260.025329
PR05 -19354.949783   6927.353409  15126.809385    139.405398
PR07  -5537.576262  16245.896592 -18859.725567     93.261994
PR08   9279.853746   6169.070144 -22888.504011     -6.401667
PR09  -5677.519283  16683.854624 -18385.701995    215.643006
PR11   9643.443100  20487.721124  11736.674396      8.909381
PR12  11461.069711   2025.800817  22723.106548     46.225295
PR14  -3039.650282 -25045.550106   3847.102669     27.107239
PR15 -10069.712500 -19387.964321 -13155.042174     74.767367
PR16 -11339.219207  -2249.425503 -22732.625627     30.069019
PR17  -6081.909686 -12624.493807 -21286.647441    132.226384
PR18 -20028.700421 -12376.075506  -9843.793725    167.675960
PR19 -23863.999518  -7566.584303   4862.233789   -295.467220
PR20 -13199.386615   4816.809224  21311.701294   -120.694154
PR21   5168.812256  12462.992896  21661.796544   -144.151184
PR22  20327.438007  12717.879975   8726.579250     16.059734
PR24  12651.179545  -6112.353231 -21272.406971    -76.661560
PR25   5966.436726  13214.903386  21003.608023    -90.122916
PR26   7997.530088   7341.332568 -23067.753338   -536.084740
*  2024 10 19 19 15  0.00000000
PG02 -22947.701738 -13743.382772    605.433066   -333.505409
PG03 -12671.591772 -10136.233486  20884.335605    575.273327
PG04 -21386.811527  -3186.577068  15535.756526    464.611535
PG05   6046.727079  23360.190227 -11206.143116   -190.311760
PG06  -6234.622448  13497.721502  22069.994071    -50.537622
PG07 -21744.490386  -3077.050441 -14720.573239    -26.288168
PG08 -12176.098161 -10906.904920 -21120.794891    389.244641
PG09 -24871.838611   5922.773390   7217.702883    405.878013
PG10  10312.517188 -21189.486556 -11688.729817   -164.375002
PG11   7915.447791  20218.792312  15373.785873   -745.125854
PG12  10776.694272  14690.245048  19058.532840   -546.269217
PG13   2768.565723  14855.272768 -22066.166000    682.222199
PG14 -13009.637501  17941.546964 -14424.248237    521.175805
PG15  13660.218319   9756.805765 -21134.218805    217.672071
PG16   -430.578592 -25226.382721  -7863.526145   -150.591903
PG17 -20994.887573  14094.590995   8838.348835    589.802413
PG18  20710.719556   1748.572922 -16641.768440   -658.490893
PG19 -13702.418098  15834.351440  15931.971822    552.512383
PG20   1134.088406  26608.078617    781.273541    369.519915
PG21 -20565.658750 -16784.300220  -5203.341432     99.411458
PG22  -9845.446361  23755.557795  -6847.761864    -72.452178
PG23  14464.280428  -8758.611173 -20387.394281    345.165568
PG24  21815.461213  15379.846071  -2659.415017   -484.200610
PG25  15299.935986    449.703802  21354.023772    499.465979
PG26   4528.566785 -25443.402735   5010.463542     51.650558
PG27   -319.666858 -16170.514046 -21290.703625    -34.628302
PG28   8204.160557 -12796.287219  21767.070343   -451.364948
PG29  25058.154079  -2361.077352   8642.068650   -570.095801
PG30 -15460.627641   7149.228467 -20289.858346   -299.150868
PG31  -3071.355051 -18727.472370  18186.486462   -223.137343
PG32  18626.636821 -15976.154905  10115.076084   -584.772143
PR01  18409.477819  -8329.635340 -15577.472980    101.589282
PR02  18297.861908 -17708.133735    565.217743    -25.265248
PR03   7348.163831 -17925.902586  16594.902489    109.733100
PR04  -6875.022160  -8217.177670  23170.880612    260.026928
PR05 -17762.773309   5697.406960  17417.841660    139.406053
PR07  -7103.879071  17805.086561 -16825.905929     93.262720
PR08   7161.031192   8074.797877 -23059.010052     -6.401619
PR09  -6217.417916  14366.089506 -20094.237252    215.645008
PR11  10053.630779  21697.012943   8864.015846      8.908588
PR12  12089.192996   4705.565560  21989.116988     46.225750
PR14  -3003.172075 -24372.113418   6953.660763     27.107329
PR15 -10494.025407 -20785.521486 -10406.940002     74.767138
PR16 -11984.557802  -4933.377899 -21967.892725     30.069316
PR17  -3535.615450 -11725.631413 -22352.686608    132.229488
PR18 -18768.606587 -11755.468206 -12671.387444    167.677650
PR19 -24315.693558  -7507.706325   1648.908285   -295.468554
PR20 -15607.041180   4012.216971  19798.932684   -120.694523
PR21   2599.596692  11529.848362  22615.474870   -144.154012
PR22  19199.633286  12162.329817  11607.539501     16.049666
PR24  15087.875096  -5387.908388 -19834.662599    -76.662895
PR25   3492.058836  12243.677992  22117.931749    -90.118933
PR26   5898.868180   9266.205217 -23005.664132   -536.054976
EOF
